OBJECT_NAME,OBJECT_ID,EPOCH,MEAN_MOTION,ECCENTRICITY,INCLINATION,RA_OF_ASC_NODE,ARG_OF_PERICENTER,MEAN_ANOMALY,EPHEMERIS_TYPE,CLASSIFICATION_TYPE,NORAD_CAT_ID,ELEMENT_SET_NO,REV_AT_EPOCH,BSTAR,MEAN_MOTION_DOT,MEAN_MOTION_DDOT
SAUDISAT 5A,2018-102A,2026-07-13T21:07:46.675776,15.28313016,.0010546,97.3056,255.9490,47.9039,312.3096,0,U,43831,999,41975,.11945E-3,.3225E-4,0
SAUDISAT 5B,2018-102C,2026-07-13T19:54:21.650400,15.28556101,.0011329,97.3166,259.0169,49.5381,310.6845,0,U,43833,999,41986,.11272E-3,.3062E-4,0
GAOFEN-10R,2019-066A,2026-07-13T20:55:35.133024,14.83055435,.0006929,98.0514,148.6470,56.4994,303.6880,0,U,44622,999,36633,.72678E-4,.537E-5,0
CARTOSAT-3,2019-081A,2026-07-13T18:23:03.776352,15.19319394,.0013222,97.4302,256.2032,65.4929,294.7683,0,U,44804,999,36750,.13459E-3,.278E-4,0
GAOFEN-12 01,2019-082A,2026-07-13T20:15:50.616576,14.80478971,.000104,97.8108,200.5210,53.3894,306.7414,0,U,44819,999,35803,.30067E-4,.179E-5,0
CSG-1,2019-092A,2026-07-13T20:28:23.667744,14.82156127,.0001495,97.8894,18.0702,90.0417,270.0968,0,U,44873,999,35542,.28095E-4,.171E-5,0
NEMO-HD,2020-061F,2026-07-13T19:35:30.299424,15.45119527,.000098,97.1910,256.5071,91.9646,268.1716,0,U,46277,999,32609,.14449E-3,.6752E-4,0
SENTINEL-6A,2020-086A,2026-07-13T20:46:21.703872,12.80930101,.0007807,66.0413,79.6424,269.9353,90.0768,0,U,46984,999,26374,.52519E-4,-.49E-6,0
CAS500-1,2021-022A,2026-07-13T20:29:13.728768,15.20173523,.0005076,97.3872,89.5633,172.7994,187.3316,0,U,47932,999,29481,.16783E-3,.3566E-4,0
GAOFEN-12 02,2021-026A,2026-07-13T20:35:54.145248,14.80315450,.0005746,97.9933,192.9314,135.7383,224.4289,0,U,48079,999,28570,.28614E-4,.165E-5,0
PLEIADES NEO 3,2021-034A,2026-07-13T20:39:44.446176,14.81667394,.0001366,97.8946,269.2435,89.8794,270.2575,0,U,48268,999,28160,-.15414E-3,-.1265E-4,0
PLEIADES NEO 4,2021-073E,2026-07-13T19:51:07.055136,14.81669960,.0001319,97.8943,269.2064,93.5942,266.5422,0,U,49070,999,26531,.63442E-4,.447E-5,0
LANDSAT 9,2021-088A,2026-07-13T18:31:21.620064,14.57094855,.0001144,98.2271,264.6259,88.7432,271.3897,0,U,49260,999,25487,.41992E-4,.144E-5,0
CSG-2,2022-008A,2026-07-13T19:39:44.178912,14.82152118,.0001578,97.8890,18.0316,85.9958,274.1436,0,U,51444,999,24053,.99457E-4,.74E-5,0
GAOFEN-12 03,2022-069A,2026-07-13T19:48:13.046400,14.80072477,.0002452,97.8253,82.0206,74.1164,286.0318,0,U,52912,999,21855,-.95892E-5,-.123E-5,0
SWOT,2022-173A,2026-07-13T20:31:15.403296,14.00172328,.0000278,77.6109,359.3071,79.2379,280.8804,0,U,54754,999,18288,.48543E-4,.69E-6,0
GAOFEN-12 04,2023-123A,2026-07-13T20:16:11.231616,14.79773888,.0003579,97.9102,112.4645,53.2863,306.8677,0,U,57654,999,15657,.70943E-4,.482E-5,0
PARS 1,2024-039Q,2026-07-13T21:59:45.881664,15.46272075,.0009918,97.4833,176.6911,31.0733,329.1101,0,U,59065,999,13277,.14455E-3,.7034E-4,0
RESURS-P 4,2024-061A,2026-07-13T20:14:29.314176,15.32275159,.0003224,97.2758,142.2817,91.4246,268.7365,0,U,59371,999,12784,.57733E-4,.1723E-4,0
LEGION 1,2024-081A,2026-07-13T19:31:47.900640,15.16838621,.0007692,97.5014,272.3882,275.2188,84.8167,0,U,59625,999,12157,.1045E-3,.1989E-4,0
LEGION 2,2024-081B,2026-07-13T20:15:31.528224,15.16817567,.0010122,97.5015,272.5151,238.6068,121.4176,0,U,59626,999,12158,.10936E-3,.2084E-4,0
ALOS-4 (DAICHI-4),2024-123A,2026-07-13T20:57:50.623776,14.79467704,.0001569,97.9220,291.6664,98.7570,261.3819,0,U,60182,999,10982,.50074E-4,.323E-5,0
LEGION 3,2024-146A,2026-07-13T14:56:58.227360,15.15649961,.0008347,45.0021,248.8164,325.6532,34.3806,0,U,60452,999,10603,.10474E-3,.1763E-4,0
LEGION 4,2024-146B,2026-07-13T19:41:22.354368,15.15675651,.000893,45.0030,339.6246,105.1090,255.0777,0,U,60453,999,10491,.13171E-3,.2286E-4,0
SENTINEL-2C,2024-157A,2026-07-13T17:54:12.909600,14.30815413,.0000952,98.5685,269.1511,102.3663,257.7627,0,U,60989,999,9678,.32115E-4,.41E-6,0
IONOSFERA-M 1,2024-199A,2026-07-13T20:20:04.457184,14.22758946,.0002179,98.7137,67.7337,74.6699,285.4719,0,U,61735,999,13149,.32037E-4,.28E-6,0
IONOSFERA-M 2,2024-199B,2026-07-13T19:28:05.946816,14.22762313,.0000445,98.7136,67.6084,120.1877,239.9345,0,U,61736,999,13461,.32414E-4,.29E-6,0
PRSC-EO1,2025-012A,2026-07-13T19:52:52.104576,15.17609732,.0006654,97.4221,266.7659,150.3739,209.7873,0,U,62725,999,8223,.1899E-3,.3753E-4,0
BIOMASS,2025-090A,2026-07-13T11:46:56.101440,14.67536921,.00014363,98.0750,21.4211,96.7848,263.3520,0,U,63772,999,6454,.10320661E-3,.537E-5,0
GOSAT-GW (IBUKI GW),2025-141A,2026-07-13T20:22:42.158784,14.67556262,.0001429,98.0565,131.7330,84.9526,275.1841,0,U,64694,999,5575,.73134E-4,.367E-5,0
IONOSFERA-M 3,2025-155A,2026-07-13T20:27:55.376064,14.21490714,.0002245,98.6039,156.0886,114.4171,245.7241,0,U,64876,999,5019,.24548E-4,.11E-6,0
