SAUDISAT 5A             
1 43831U 18102A   26194.88040134  .00003225  00000+0  11945-3 0  9995
2 43831  97.3056 255.9490 0010546  47.9039 312.3096 15.28313016419753
SAUDISAT 5B             
1 43833U 18102C   26194.82941725  .00003062  00000+0  11272-3 0  9999
2 43833  97.3166 259.0169 0011329  49.5381 310.6845 15.28556101419862
GAOFEN-10R              
1 44622U 19066A   26194.87193441  .00000537  00000+0  72678-4 0  9997
2 44622  98.0514 148.6470 0006929  56.4994 303.6880 14.83055435366337
CARTOSAT-3              
1 44804U 19081A   26194.76601593  .00002780  00000+0  13459-3 0  9999
2 44804  97.4302 256.2032 0013222  65.4929 294.7683 15.19319394367507
GAOFEN-12 01            
1 44819U 19082A   26194.84433584  .00000179  00000+0  30067-4 0  9993
2 44819  97.8108 200.5210 0001040  53.3894 306.7414 14.80478971358031
CSG-1                   
1 44873U 19092A   26194.85305171  .00000171  00000+0  28095-4 0  9995
2 44873  97.8894  18.0702 0001495  90.0417 270.0968 14.82156127355429
NEMO-HD                 
1 46277U 20061F   26194.81632291  .00006752  00000+0  14449-3 0  9993
2 46277  97.1910 256.5071 0000980  91.9646 268.1716 15.45119527326094
SENTINEL-6A             
1 46984U 20086A   26194.86552898 -.00000049  00000+0  52519-4 0  9999
2 46984  66.0413  79.6424 0007807 269.9353  90.0768 12.80930101263741
CAS500-1                
1 47932U 21022A   26194.85363112  .00003566  00000+0  16783-3 0  9990
2 47932  97.3872  89.5633 0005076 172.7994 187.3316 15.20173523294816
GAOFEN-12 02            
1 48079U 21026A   26194.85826557  .00000165  00000+0  28614-4 0  9993
2 48079  97.9933 192.9314 0005746 135.7383 224.4289 14.80315450285705
PLEIADES NEO 3          
1 48268U 21034A   26194.86093109 -.00001265  00000+0 -15414-3 0  9999
2 48268  97.8946 269.2435 0001366  89.8794 270.2575 14.81667394281609
PLEIADES NEO 4          
1 49070U 21073E   26194.82716499  .00000447  00000+0  63442-4 0  9998
2 49070  97.8943 269.2064 0001319  93.5942 266.5422 14.81669960265311
LANDSAT 9               
1 49260U 21088A   26194.77177801  .00000144  00000+0  41992-4 0  9997
2 49260  98.2271 264.6259 0001144  88.7432 271.3897 14.57094855254879
CSG-2                   
1 51444U 22008A   26194.81926133  .00000740  00000+0  99457-4 0  9993
2 51444  97.8890  18.0316 0001578  85.9958 274.1436 14.82152118240539
GAOFEN-12 03            
1 52912U 22069A   26194.82515100 -.00000123  00000+0 -95892-5 0  9997
2 52912  97.8253  82.0206 0002452  74.1164 286.0318 14.80072477218558
SWOT                    
1 54754U 22173A   26194.85503939  .00000069  00000+0  48543-4 0  9996
2 54754  77.6109 359.3071 0000278  79.2379 280.8804 14.00172328182884
GAOFEN-12 04            
1 57654U 23123A   26194.84457444  .00000482  00000+0  70943-4 0  9990
2 57654  97.9102 112.4645 0003579  53.2863 306.8677 14.79773888156574
PARS 1                  
1 59065U 24039Q   26194.91650326  .00007034  00000+0  14455-3 0  9992
2 59065  97.4833 176.6911 0009918  31.0733 329.1101 15.46272075132772
RESURS-P 4              
1 59371U 24061A   26194.84339484  .00001723  00000+0  57733-4 0  9994
2 59371  97.2758 142.2817 0003224  91.4246 268.7365 15.32275159127846
LEGION 1                
1 59625U 24081A   26194.81374885  .00001989  00000+0  10450-3 0  9997
2 59625  97.5014 272.3882 0007692 275.2188  84.8167 15.16838621121575
LEGION 2                
1 59626U 24081B   26194.84411491  .00002084  00000+0  10936-3 0  9992
2 59626  97.5015 272.5151 0010122 238.6068 121.4176 15.16817567121585
ALOS-4 (DAICHI-4)       
1 60182U 24123A   26194.87350259  .00000323  00000+0  50074-4 0  9997
2 60182  97.9220 291.6664 0001569  98.7570 261.3819 14.79467704109828
LEGION 3                
1 60452U 24146A   26194.62289615  .00001763  00000+0  10474-3 0  9990
2 60452  45.0021 248.8164 0008347 325.6532  34.3806 15.15649961106033
LEGION 4                
1 60453U 24146B   26194.82039762  .00002286  00000+0  13171-3 0  9997
2 60453  45.0030 339.6246 0008930 105.1090 255.0777 15.15675651104911
SENTINEL-2C             
1 60989U 24157A   26194.74598275  .00000041  00000+0  32115-4 0  9990
2 60989  98.5685 269.1511 0000952 102.3663 257.7627 14.30815413 96783
IONOSFERA-M 1           
1 61735U 24199A   26194.84727381  .00000028  00000+0  32037-4 0  9997
2 61735  98.7137  67.7337 0002179  74.6699 285.4719 14.22758946131494
IONOSFERA-M 2           
1 61736U 24199B   26194.81117994  .00000029  00000+0  32414-4 0  9998
2 61736  98.7136  67.6084 0000445 120.1877 239.9345 14.22762313134610
PRSC-EO1                
1 62725U 25012A   26194.82838084  .00003753  00000+0  18990-3 0  9992
2 62725  97.4221 266.7659 0006654 150.3739 209.7873 15.17609732 82231
BIOMASS                 
1 63772U 25090A   26194.49092710  .00000537  00000+0  10321-3 0  9999
2 63772  98.0750  21.4211 0001436  96.7848 263.3520 14.67536921 64547
GOSAT-GW (IBUKI GW)     
1 64694U 25141A   26194.84909906  .00000367  00000+0  73134-4 0  9996
2 64694  98.0565 131.7330 0001429  84.9526 275.1841 14.67556262 55756
IONOSFERA-M 3           
1 64876U 25155A   26194.85272426  .00000011  00000+0  24548-4 0  9995
2 64876  98.6039 156.0886 0002245 114.4171 245.7241 14.21490714 50197
